NORAD_CAT_ID,OBJECT_NAME,OBJECT_TYPE,EPOCH,MEAN_MOTION,ECCENTRICITY,INCLINATION,RA_OF_ASC_NODE,ARG_OF_PERICENTER,MEAN_ANOMALY,BSTAR,MEAN_MOTION_DOT,MEAN_MOTION_DDOT,TLE_LINE0,TLE_LINE1,TLE_LINE2,SEMIMAJOR_AXIS,PERIOD,APOGEE,PERIGEE,DECAYED
55439.0,STARLINK-5634,PAYLOAD,2024-02-04 22:24:48,14.98335245,0.0002352,69.9985,230.228,269.9607,90.1282,0.00010782,1.194e-05,0.0,0 STARLINK-5634,1 55439U 23014BA  24035.93389150  .00001194  00000-0  10782-3 0  9994,2 55439  69.9985 230.2280 0002352 269.9607  90.1282 14.98335245 56661,6950.177,96.107,573.676,570.407,0.0
55439.0,STARLINK-5634,PAYLOAD,2024-02-05 14:26:09,14.98333088,0.0002347,69.9986,228.5447,270.1754,89.9136,3.9066e-05,3.73e-06,0.0,0 STARLINK-5634,1 55439U 23014BA  24036.60149365  .00000373  00000-0  39066-4 0  9996,2 55439  69.9986 228.5447 0002347 270.1754  89.9136 14.98333088 56766,6950.183,96.107,573.68,570.417,0.0
55439.0,STARLINK-5634,PAYLOAD,2024-02-05 19:14:33,14.98332963,0.0002353,69.9986,228.0399,270.691,89.3979,3.2476e-05,2.95e-06,0.0,0 STARLINK-5634,1 55439U 23014BA  24036.80177333  .00000295  00000-0  32476-4 0  9995,2 55439  69.9986 228.0399 0002353 270.6910  89.3979 14.98332963 55852,6950.184,96.107,573.684,570.413,0.0
55439.0,STARLINK-5634,PAYLOAD,2024-02-05 22:26:49,14.98333068,0.0002355,69.9987,227.7032,270.9474,89.1416,3.0695e-05,2.73e-06,0.0,0 STARLINK-5634,1 55439U 23014BA  24036.93529294  .00000273  00000-0  30695-4 0  9993,2 55439  69.9987 227.7032 0002355 270.9474  89.1416 14.98333068 56811,6950.183,96.107,573.685,570.412,0.0
55439.0,STARLINK-5634,PAYLOAD,2024-02-06 14:28:09,14.9833459,0.0002387,69.9987,226.0201,271.2384,88.8502,6.4192e-05,6.73e-06,0.0,0 STARLINK-5634,1 55439U 23014BA  24037.60289011  .00000673  00000-0  64192-4 0  9991,2 55439  69.9987 226.0201 0002387 271.2384  88.8502 14.98334590 56914,6950.179,96.107,573.703,570.385,0.0
55439.0,STARLINK-5634,PAYLOAD,2024-02-06 19:16:33,14.98335011,0.0002389,69.9988,225.5151,271.4301,88.6584,6.4086e-05,6.72e-06,0.0,0 STARLINK-5634,1 55439U 23014BA  24037.80316938  .00000672  00000-0  64086-4 0  9993,2 55439  69.9988 225.5151 0002389 271.4301  88.6584 14.98335011 56003,6950.177,96.107,573.703,570.382,0.0
55439.0,STARLINK-5634,PAYLOAD,2024-02-06 22:28:49,14.98336557,0.0002388,69.9988,225.1785,271.6023,88.4862,8.0562e-05,8.69e-06,0.0,0 STARLINK-5634,1 55439U 23014BA  24037.93668789  .00000869  00000-0  80562-4 0  9996,2 55439  69.9988 225.1785 0002388 271.6023  88.4862 14.98336557 56962,6950.173,96.107,573.697,570.378,0.0
55439.0,STARLINK-5634,PAYLOAD,2024-02-07 14:30:10,14.98331891,0.0002348,69.999,223.4952,271.8761,88.2129,7.2497e-05,7.72e-06,0.0,0 STARLINK-5634,1 55439U 23014BA  24038.60429040  .00000772  00000-0  72497-4 0  9997,2 55439  69.9990 223.4952 0002348 271.8761  88.2129 14.98331891 57061,6950.187,96.107,573.684,570.42,0.0
55439.0,STARLINK-5634,PAYLOAD,2024-02-07 19:18:34,14.98331961,0.0002322,69.9991,222.9904,271.6584,88.4309,7.5816e-05,8.12e-06,0.0,0 STARLINK-5634,1 55439U 23014BA  24038.80457012  .00000812  00000-0  75816-4 0  9992,2 55439  69.9991 222.9904 0002322 271.6584  88.4309 14.98331961 56155,6950.187,96.107,573.666,570.438,0.0
55439.0,STARLINK-5634,PAYLOAD,2024-02-07 20:54:42,14.98331366,0.0002346,69.9991,222.8222,271.787,88.3021,6.5466e-05,6.88e-06,0.0,0 STARLINK-5634,1 55439U 23014BA  24038.87133060  .00000688  00000-0  65466-4 0  9994,2 55439  69.9991 222.8222 0002346 271.7870  88.3021 14.98331366 57107,6950.189,96.107,573.684,570.423,0.0
55439.0,STARLINK-5634,PAYLOAD,2024-02-08 14:32:11,14.98328814,0.0002308,69.9994,220.9708,271.0037,89.0858,-5.366e-06,-1.57e-06,0.0,0 STARLINK-5634,1 55439U 23014BA  24039.60569425 -.00000157  00000-0 -53660-5 0  9991,2 55439  69.9994 220.9708 0002308 271.0037  89.0858 14.98328814 57216,6950.197,96.107,573.666,570.457,0.0
55439.0,STARLINK-5634,PAYLOAD,2024-02-08 19:20:36,14.98327402,0.0002327,69.9995,220.4658,271.6495,88.4397,-2.3613e-05,-3.75e-06,0.0,0 STARLINK-5634,1 55439U 23014BA  24039.80597562 -.00000375  00000-0 -23613-4 0  9992,2 55439  69.9995 220.4658 0002327 271.6495  88.4397 14.98327402 56303,6950.201,96.107,573.683,570.449,0.0
55439.0,STARLINK-5634,PAYLOAD,2024-02-08 20:56:44,14.98327538,0.0002324,69.9996,220.2975,271.747,88.3422,-2.2826e-05,-3.65e-06,0.0,0 STARLINK-5634,1 55439U 23014BA  24039.87273547 -.00000365  00000-0 -22826-4 0  9997,2 55439  69.9996 220.2975 0002324 271.7470  88.3422 14.98327538 57258,6950.201,96.107,573.681,570.45,0.0
55439.0,STARLINK-5634,PAYLOAD,2024-02-09 14:34:12,14.98331571,0.0002389,69.9996,218.4461,269.9643,90.1242,6.5312e-05,6.86e-06,0.0,0 STARLINK-5634,1 55439U 23014BA  24040.60709100  .00000686  00000-0  65312-4 0  9990,2 55439  69.9996 218.4461 0002389 269.9643  90.1242 14.98331571 57364,6950.188,96.107,573.713,570.393,0.0
55439.0,STARLINK-5634,PAYLOAD,2024-02-09 19:22:36,14.98332128,0.000239,69.9997,217.9412,270.2135,89.875,6.9094e-05,7.32e-06,0.0,0 STARLINK-5634,1 55439U 23014BA  24040.80737051  .00000732  00000-0  69094-4 0  9991,2 55439  69.9997 217.9412 0002390 270.2135  89.8750 14.98332128 56455,6950.186,96.107,573.712,570.39,0.0
55439.0,STARLINK-5634,PAYLOAD,2024-02-10 13:00:05,14.98330313,0.000239,69.9999,216.0894,266.4412,93.6473,0.00011973,1.336e-05,0.0,0 STARLINK-5634,1 55439U 23014BA  24041.54173083  .00001336  00000-0  11973-3 0  9995,2 55439  69.9999 216.0894 0002390 266.4412  93.6473 14.98330313 57502,6950.192,96.107,573.718,570.396,0.0
55439.0,STARLINK-5634,PAYLOAD,2024-02-10 19:24:37,14.9833149,0.0002425,70.0,215.4165,268.2788,91.8093,0.00012568,1.407e-05,0.0,0 STARLINK-5634,1 55439U 23014BA  24041.80877035  .00001407  00000-0  12568-3 0  9992,2 55439  70.0000 215.4165 0002425 268.2788  91.8093 14.98331490 56602,6950.188,96.107,573.739,570.368,0.0
55439.0,STARLINK-5634,PAYLOAD,2024-02-10 21:00:45,14.98331836,0.0002428,70.0,215.2482,268.475,91.6131,0.00012776,1.432e-05,0.0,0 STARLINK-5634,1 55439U 23014BA  24041.87553015  .00001432  00000-0  12776-3 0  9997,2 55439  70.0000 215.2482 0002428 268.4750  91.6131 14.98331836 57556,6950.187,96.107,573.74,570.365,0.0
55439.0,STARLINK-5634,PAYLOAD,2024-02-11 14:38:14,14.98334768,0.0002386,70.0001,213.3966,267.1817,92.9069,6.3259e-05,6.62e-06,0.0,0 STARLINK-5634,1 55439U 23014BA  24042.60988872  .00000662  00000-0  63259-4 0  9999,2 55439  70.0001 213.3966 0002386 267.1817  92.9069 14.98334768 57669,6950.178,96.107,573.701,570.385,0.0
55439.0,STARLINK-5634,PAYLOAD,2024-02-11 19:26:38,14.98335082,0.0002385,70.0003,212.892,267.5452,92.5434,6.3422e-05,6.64e-06,0.0,0 STARLINK-5634,1 55439U 23014BA  24042.81016798  .00000664  00000-0  63422-4 0  9995,2 55439  70.0003 212.8920 0002385 267.5452  92.5434 14.98335082 56754,6950.177,96.107,573.7,570.385,0.0
55439.0,STARLINK-5634,PAYLOAD,2024-02-11 21:02:46,14.98335131,0.0002399,70.0003,212.7237,268.3042,91.7842,6.0541e-05,6.3e-06,0.0,0 STARLINK-5634,1 55439U 23014BA  24042.87692755  .00000630  00000-0  60541-4 0  9996,2 55439  70.0003 212.7237 0002399 268.3042  91.7842 14.98335131 57708,6950.177,96.107,573.709,570.375,0.0
55439.0,STARLINK-5634,PAYLOAD,2024-02-12 14:40:15,14.98333336,0.0002376,70.0006,210.8728,268.2022,91.8865,5.3321e-05,5.43e-06,0.0,0 STARLINK-5634,1 55439U 23014BA  24043.61128816  .00000543  00000-0  53321-4 0  9992,2 55439  70.0006 210.8728 0002376 268.2022  91.8865 14.98333336 57810,6950.183,96.107,573.699,570.396,0.0
55439.0,STARLINK-5634,PAYLOAD,2024-02-12 19:28:39,14.98334132,0.0002366,70.0006,210.3678,268.2343,91.8545,5.9632e-05,6.19e-06,0.0,0 STARLINK-5634,1 55439U 23014BA  24043.81156707  .00000619  00000-0  59632-4 0  9999,2 55439  70.0006 210.3678 0002366 268.2343  91.8545 14.98334132 56903,6950.18,96.107,573.69,570.401,0.0
55439.0,STARLINK-5634,PAYLOAD,2024-02-12 21:04:47,14.98334585,0.000245,70.0003,210.1984,272.022,88.0659,5.5736e-05,5.72e-06,0.0,0 STARLINK-5634,1 55439U 23014BA  24043.87832623  .00000572  00000-0  55736-4 0  9992,2 55439  70.0003 210.1984 0002450 272.0220  88.0659 14.98334585 57850,6950.179,96.107,573.747,570.341,0.0
55439.0,STARLINK-5634,PAYLOAD,2024-02-13 14:42:16,14.98333524,0.0002433,70.0005,208.3469,274.8199,85.2682,4.1233e-05,3.99e-06,0.0,0 STARLINK-5634,1 55439U 23014BA  24044.61268715  .00000399  00000-0  41233-4 0  9994,2 55439  70.0005 208.3469 0002433 274.8199  85.2682 14.98333524 57964,6950.182,96.107,573.738,570.356,0.0
55439.0,STARLINK-5634,PAYLOAD,2024-02-13 19:30:40,14.98333899,0.0002468,70.0004,207.8421,272.8659,87.2218,3.6487e-05,3.42e-06,0.0,0 STARLINK-5634,1 55439U 23014BA  24044.81296641  .00000342  00000-0  36487-4 0  9998,2 55439  70.0004 207.8421 0002468 272.8659  87.2218 14.98333899 57054,6950.181,96.107,573.761,570.331,0.0
55439.0,STARLINK-5634,PAYLOAD,2024-02-13 21:06:48,14.98334806,0.0002468,70.0004,207.6736,273.4305,86.6572,4.6807e-05,4.66e-06,0.0,0 STARLINK-5634,1 55439U 23014BA  24044.87972547  .00000466  00000-0  46807-4 0  9994,2 55439  70.0004 207.6736 0002468 273.4305  86.6572 14.98334806 58007,6950.178,96.107,573.758,570.328,0.0
55439.0,STARLINK-5634,PAYLOAD,2024-02-14 14:44:17,14.98330243,0.0002534,70.0001,205.8219,272.3925,87.6944,1.026e-05,2.9e-07,0.0,0 STARLINK-5634,1 55439U 23014BA  24045.61408817  .00000029  00000-0  10260-4 0  9990,2 55439  70.0001 205.8219 0002534 272.3925  87.6944 14.98330243 58117,6950.192,96.107,573.818,570.296,0.0
55439.0,STARLINK-5634,PAYLOAD,2024-02-15 03:33:21,14.98331605,0.0002557,70.0002,204.4755,269.7735,90.3131,3.5259e-05,3.28e-06,0.0,0 STARLINK-5634,1 55439U 23014BA  24046.14816626  .00000328  00000-0  35259-4 0  9997,2 55439  70.0002 204.4755 0002557 269.7735  90.3131 14.98331605 57258,6950.188,96.107,573.83,570.276,0.0
55439.0,STARLINK-5634,PAYLOAD,2024-02-15 14:46:18,14.98327989,0.0002543,70.0003,203.2978,266.0621,94.0247,-4.3319e-06,-1.45e-06,0.0,0 STARLINK-5634,1 55439U 23014BA  24046.61548971 -.00000145  00000-0 -43319-5 0  9990,2 55439  70.0003 203.2978 0002543 266.0621  94.0247 14.98327989 58263,6950.199,96.107,573.832,570.297,0.0
